{"type":"FeatureCollection","features":[{"id":"0","type":"Feature","properties":{"code":"FA001","commune":"Sirakorola","cercle_region":"KOULIKORO_KOULIKORO","coc":"MLI"},"geometry":{"type":"Polygon","coordinates":[[[-7.538450019787148,13.483324108268313],[-7.520638104314717,13.474310849836513],[-7.509816168065317,13.469316110029114],[-7.502601543899047,13.471813479932813],[-7.487617324476807,13.481525474002812],[-7.479847729220828,13.487907641534512],[-7.4664069939328375,13.495520545442313],[-7.454041573549177,13.495954722335313],[-7.451266718100617,13.481802959547615],[-7.450434261466038,13.475143306471113],[-7.437947411947508,13.470148566663713],[-7.433507643229798,13.466263769035713],[-7.422408221435546,13.457384231600312],[-7.419697927372688,13.453488183884913],[-7.413528684000137,13.444619896536912],[-7.408256458647867,13.436572815736014],[-7.402984233295596,13.431300590383815],[-7.397712007943327,13.426305850576313],[-7.389942412687347,13.420756139679213],[-7.386057615059358,13.418536255320415],[-7.385780129514497,13.401332151539314],[-7.373570765540817,13.401332151539314],[-7.364968713650267,13.399944723815013],[-7.3619163726568475,13.395782440642112],[-7.356089176214858,13.394117527373012],[-7.350539465317738,13.388290330931012],[-7.347209638779457,13.378023365771313],[-7.344157297786037,13.374416053688213],[-7.3424923845168975,13.331960765325212],[-7.3363877025300575,13.331683279780313],[-7.3241783385563775,13.330573337600912],[-7.314466344486397,13.329185909876612],[-7.308084176954698,13.329185909876612],[-7.2980946973398675,13.328630938786914],[-7.307341518312836,13.322840258670212],[-7.311913920000008,13.296133980000013],[-7.3193299200000075,13.242173040000013],[-7.323036120000007,13.212401040000012],[-7.319292120000007,13.191930990000012],[-7.321146120000007,13.178906010000013],[-7.332320880000007,13.164023970000013],[-7.341625080000006,13.139837010000013],[-7.345335960000006,13.117508010000012],[-7.3490540400000075,13.102623000000012],[-7.358366160000007,13.089600990000012],[-7.367681880000007,13.082162040000012],[-7.378863840000007,13.076583030000013],[-7.390050120000008,13.076587980000012],[-7.391914920000007,13.078449000000013],[-7.397510040000007,13.080312990000012],[-7.403099040000006,13.074732000000012],[-7.4142820800000075,13.071015000000012],[-7.421742000000007,13.074740010000012],[-7.429209840000008,13.087767960000013],[-7.432947000000008,13.098934980000012],[-7.432959960000008,13.115682000000012],[-7.429237920000008,13.124985030000012],[-7.427378880000006,13.132427040000012],[-7.418064960000007,13.141728000000013],[-7.4143389600000065,13.145447970000012],[-7.406883000000008,13.147306020000013],[-7.4050200000000075,13.149165960000012],[-7.410620160000006,13.158471960000012],[-7.414356960000006,13.169638980000013],[-7.418090880000007,13.177082970000013],[-7.418099880000007,13.188248010000015],[-7.414377120000007,13.195690020000013],[-7.412518080000007,13.203133020000013],[-7.412524920000007,13.212437040000012],[-7.421850000000008,13.216161960000013],[-7.438629960000007,13.218029010000013],[-7.4535418800000075,13.214313990000015],[-7.460993880000006,13.206872970000012],[-7.462854000000007,13.201291980000013],[-7.468445160000007,13.197572010000012],[-7.474043160000007,13.205017980000012],[-7.483365000000007,13.205022030000013],[-7.488954000000008,13.199441040000012],[-7.503865920000006,13.195726020000013],[-7.516911960000008,13.190148000000013],[-7.531823880000006,13.186432980000012],[-7.541146080000007,13.186436040000013],[-7.552330920000007,13.184579970000012],[-7.574703120000008,13.184588970000013],[-7.587756000000007,13.188315960000013],[-7.602671880000008,13.190182020000012],[-7.604542080000007,13.197626010000013],[-7.619459040000007,13.199492970000012],[-7.638098040000007,13.193918010000013],[-7.651149120000008,13.193922960000013],[-7.6642020000000075,13.197650040000012],[-7.669798920000007,13.203234990000013],[-7.676330040000008,13.210680510000014],[-7.697673881933108,13.214584379850912],[-7.724867465329037,13.247605159688813],[-7.705720962733938,13.356934464362212],[-7.705507546946717,13.358727156975013],[-7.704333535009657,13.368588857246213],[-7.702668621740528,13.380243250130212],[-7.699616280747098,13.389122787565613],[-7.695176512029398,13.395504955097312],[-7.701558679561098,13.410211688974712],[-7.705998448278797,13.422698538493213],[-7.708218332637647,13.432688018108012],[-7.6879618878631275,13.435185388011712],[-7.682967148055718,13.435185388011712],[-7.6757525238894475,13.441012584453714],[-7.663820645460628,13.441290069998614],[-7.654108651390657,13.444897382081713],[-7.645784085044957,13.447117266440612],[-7.624972669180727,13.449892121889112],[-7.6208103860078875,13.459049144869413],[-7.6208103860078875,13.464321370221713],[-7.623862727001307,13.470426052208513],[-7.6246951836358665,13.475975763105613],[-7.623862727001307,13.480415531823313],[-7.615538160655608,13.491514953617612],[-7.6074910798547775,13.502059404322113],[-7.596669143605378,13.514546253840713],[-7.589732004983967,13.518986022558412],[-7.586679663990537,13.521483392462113],[-7.580297496458848,13.526755617814414],[-7.575025271106577,13.528975502173212],[-7.573915328927147,13.530085444352615],[-7.576690184375718,13.534525213070314],[-7.5747477855617165,13.540629895057213],[-7.575580242196288,13.546457091499212],[-7.577800126555138,13.554226686755113],[-7.579150635866308,13.557838761952512],[-7.579465039824277,13.560053883197114],[-7.595934396722108,13.573667522939113],[-7.568920589119737,13.575593073709115],[-7.551438999793776,13.575870559254014],[-7.551993970883496,13.563938680825112],[-7.551993970883496,13.538687496243213],[-7.5508840287040675,13.528143045538615],[-7.5558787685114766,13.522315849096714],[-7.558376138415188,13.515378710475215],[-7.563925849312317,13.495399751245612],[-7.562117446988588,13.492817658512513],[-7.555323797421768,13.489295069258713],[-7.5497740865246366,13.487907641534512],[-7.543669404537797,13.485965242720512],[-7.538450019787148,13.483324108268313]]]}},{"id":"1","type":"Feature","properties":{"code":"FA001","commune":"Koula","cercle_region":"KOULIKORO_KOULIKORO","coc":"MLI"},"geometry":{"type":"Polygon","coordinates":[[[-7.697673881933108,13.214584379850912],[-7.676330040000008,13.210680510000014],[-7.669798920000007,13.203234990000013],[-7.6642020000000075,13.197650040000012],[-7.651149120000008,13.193922960000013],[-7.638098040000007,13.193918010000013],[-7.619459040000007,13.199492970000012],[-7.604542080000007,13.197626010000013],[-7.602671880000008,13.190182020000012],[-7.587756000000007,13.188315960000013],[-7.574703120000008,13.184588970000013],[-7.552330920000007,13.184579970000012],[-7.557910920000007,13.167835020000012],[-7.569092880000007,13.162257000000013],[-7.587735120000007,13.160403000000013],[-7.606365840000008,13.143663000000013],[-7.617543120000007,13.132503000000012],[-7.628713920000007,13.112037990000012],[-7.634291040000008,13.091571000000013],[-7.6361461200000065,13.078546020000012],[-7.638000120000008,13.065521040000013],[-7.634265120000007,13.056216030000012],[-7.617480840000008,13.050627030000012],[-7.598838960000008,13.052480040000013],[-7.582066920000006,13.061778030000012],[-7.574621040000007,13.076660970000013],[-7.572061246663327,13.083486287658213],[-7.569038880000006,13.091544990000012],[-7.555993920000007,13.098984030000013],[-7.537353840000007,13.102697970000012],[-7.531763040000008,13.106417040000013],[-7.520586120000007,13.117578030000013],[-7.507545120000008,13.130597970000013],[-7.4963818800000075,13.160367000000015],[-7.493255010351248,13.167242829361012],[-7.487075160000007,13.180832010000012],[-7.481487960000008,13.188273030000012],[-7.481491920000007,13.193856000000013],[-7.488954000000008,13.199441040000012],[-7.483365000000007,13.205022030000013],[-7.474043160000007,13.205017980000012],[-7.468445160000007,13.197572010000012],[-7.462854000000007,13.201291980000013],[-7.460993880000006,13.206872970000012],[-7.4535418800000075,13.214313990000015],[-7.438629960000007,13.218029010000013],[-7.421850000000008,13.216161960000013],[-7.412524920000007,13.212437040000012],[-7.412518080000007,13.203133020000013],[-7.414377120000007,13.195690020000013],[-7.418099880000007,13.188248010000015],[-7.418090880000007,13.177082970000013],[-7.414356960000006,13.169638980000013],[-7.410620160000006,13.158471960000012],[-7.4050200000000075,13.149165960000012],[-7.406883000000008,13.147306020000013],[-7.4143389600000065,13.145447970000012],[-7.418064960000007,13.141728000000013],[-7.427378880000006,13.132427040000012],[-7.429237920000008,13.124985030000012],[-7.432959960000008,13.115682000000012],[-7.432947000000008,13.098934980000012],[-7.429209840000008,13.087767960000013],[-7.421742000000007,13.074740010000012],[-7.4142820800000075,13.071015000000012],[-7.422656040000008,13.050549000000013],[-7.428245040000008,13.044969000000012],[-7.450614000000008,13.041255960000013],[-7.4636611200000065,13.035679020000012],[-7.472973960000006,13.024518030000012],[-7.519583160000007,13.024536030000013],[-7.553140920000008,13.024549980000012],[-7.577376120000007,13.022697960000013],[-7.586695080000007,13.018980960000013],[-7.605335160000007,13.013405010000012],[-7.627704840000007,13.011553980000013],[-7.642617120000007,13.007837970000013],[-7.6578547787342774,13.005503970665412],[-7.666850880000008,13.004126010000013],[-7.676169840000008,13.000408020000012],[-7.692944040000008,12.992970960000012],[-7.717178880000008,12.991120020000013],[-7.733948040000007,12.978100980000013],[-7.741895568960147,12.973342273440313],[-7.752583080000008,12.966942960000013],[-7.778680920000007,12.963231990000013],[-7.795459080000007,12.961377990000013],[-7.814099880000007,12.957663960000012],[-7.821394798875237,12.969293181722712],[-7.844594487258357,12.967844520201012],[-7.848181393135707,12.976612512345612],[-7.855753749987888,12.986576139782713],[-7.857746475475308,12.990163045660012],[-7.856949385280338,12.993749951537412],[-7.859739200962717,13.004112124071913],[-7.867710102912388,13.019256837776313],[-7.877275185251978,13.020851018166212],[-7.884050451909198,13.023242288751112],[-7.899992255808518,13.023242288751112],[-7.911615237017408,13.024784267169112],[-7.871657318558077,13.091658283479513],[-7.873322231827217,13.106365017356913],[-7.876097087275788,13.131616201938812],[-7.876929543910348,13.139663282739713],[-7.875264630641217,13.140773224919112],[-7.8719348041029376,13.141328196008812],[-7.867772520930088,13.144935508091912],[-7.861390353398397,13.147710363540513],[-7.855285671411547,13.148820305719912],[-7.850568417148987,13.148820305719912],[-7.845573677341577,13.147987849085412],[-7.835584197726747,13.154092531072212],[-7.826427174746488,13.154647502161913],[-7.8219874060287875,13.155479958796512],[-7.820322492759648,13.155479958796512],[-7.813940325227947,13.154092531072212],[-7.805893244427107,13.150762704533912],[-7.791186510549717,13.145767964726513],[-7.774259892313477,13.142715623733112],[-7.754558418628677,13.160474698603913],[-7.743458996834418,13.169909207129013],[-7.734579459399017,13.178511259019613],[-7.728752262957028,13.182673542192413],[-7.723757523149617,13.184893426551312],[-7.718207812252487,13.186003368730713],[-7.704056049464807,13.186558339820412],[-7.703177949433177,13.188279771974114],[-7.697673881933108,13.214584379850912]]]}},{"id":"2","type":"Feature","properties":{"code":"FA001","commune":"Doumba","cercle_region":"KOULIKORO_KOULIKORO","coc":"MLI"},"geometry":{"type":"Polygon","coordinates":[[[-7.488954000000008,13.199441040000012],[-7.481491920000007,13.193856000000013],[-7.481487960000008,13.188273030000012],[-7.487075160000007,13.180832010000012],[-7.493255010351248,13.167242829361012],[-7.4963818800000075,13.160367000000015],[-7.507545120000008,13.130597970000013],[-7.520586120000007,13.117578030000013],[-7.531763040000008,13.106417040000013],[-7.537353840000007,13.102697970000012],[-7.555993920000007,13.098984030000013],[-7.569038880000006,13.091544990000012],[-7.572061246663327,13.083486287658213],[-7.574621040000007,13.076660970000013],[-7.582066920000006,13.061778030000012],[-7.598838960000008,13.052480040000013],[-7.617480840000008,13.050627030000012],[-7.634265120000007,13.056216030000012],[-7.638000120000008,13.065521040000013],[-7.6361461200000065,13.078546020000012],[-7.634291040000008,13.091571000000013],[-7.628713920000007,13.112037990000012],[-7.617543120000007,13.132503000000012],[-7.606365840000008,13.143663000000013],[-7.587735120000007,13.160403000000013],[-7.569092880000007,13.162257000000013],[-7.557910920000007,13.167835020000012],[-7.552330920000007,13.184579970000012],[-7.541146080000007,13.186436040000013],[-7.531823880000006,13.186432980000012],[-7.516911960000008,13.190148000000013],[-7.503865920000006,13.195726020000013],[-7.488954000000008,13.199441040000012]]]}},{"id":"3","type":"Feature","properties":{"code":"FA001","commune":"Meguetan","cercle_region":"KOULIKORO_KOULIKORO","coc":"MLI"},"geometry":{"type":"Polygon","coordinates":[[[-7.4142820800000075,13.071015000000012],[-7.403099040000006,13.074732000000012],[-7.397510040000007,13.080312990000012],[-7.391914920000007,13.078449000000013],[-7.390050120000008,13.076587980000012],[-7.378863840000007,13.076583030000013],[-7.367681880000007,13.082162040000012],[-7.356490920000008,13.076575020000012],[-7.347394432317487,13.075058304498413],[-7.322928840000008,13.070979000000014],[-7.308006840000007,13.061669040000012],[-7.322914080000007,13.051440000000012],[-7.349007960000006,13.042145970000012],[-7.363914840000007,13.032847980000012],[-7.367640120000007,13.027266990000012],[-7.358303880000007,13.008654990000013],[-7.347108960000007,12.997485990000012],[-7.332189120000007,12.990036960000012],[-7.315403040000007,12.980726010000012],[-7.298801450691567,12.972989525394013],[-7.287427080000007,12.967688970000012],[-7.2818229600000075,12.952800000000012],[-7.254793877016477,12.930349813676113],[-7.2513143735616765,12.927459759991313],[-7.256365550471257,12.923620865540013],[-7.264821718379018,12.919392781586112],[-7.270830048208217,12.918280127914013],[-7.275503193630926,12.918280127914013],[-7.280621400522467,12.919392781586112],[-7.301316758823048,12.925846172884212],[-7.303764596901607,12.925846172884212],[-7.3053223120425175,12.924510988477712],[-7.307325088652247,12.921618088930312],[-7.307547619386666,12.919615312320513],[-7.307770150121077,12.913384451756912],[-7.307325088652247,12.907821183396612],[-7.307770150121077,12.905373345318013],[-7.308437742324326,12.904038160911512],[-7.309550395996397,12.902480445770612],[-7.311553172606126,12.901367792098512],[-7.313778479950277,12.899587546223213],[-7.314891133622348,12.898474892551112],[-7.314891133622348,12.896472115941412],[-7.315113664356767,12.892466562721912],[-7.315781256560006,12.888015948033612],[-7.317338971700917,12.884455456283012],[-7.318896686841818,12.877557003516113],[-7.323124770795707,12.867098058998613],[-7.325795139608677,12.861757321372712],[-7.326907793280756,12.855303930074612],[-7.330023223562567,12.841061963072113],[-7.332916123109958,12.839059186462412],[-7.337589268532667,12.838836655727912],[-7.340927229548887,12.835721225446113],[-7.348493274518997,12.823482035053312],[-7.3622901800527165,12.809907660254012],[-7.387881214510418,12.787654586812513],[-7.399007751231167,12.778308295967113],[-7.4059062039980175,12.774525273482112],[-7.412137064561637,12.772522496872313],[-7.421483355407057,12.770297189528213],[-7.448187043536837,12.761618490886013],[-7.453082719693967,12.759838245010712],[-7.4577558651166775,12.755165099588012],[-7.4624290105393865,12.752717261509412],[-7.4708851784471575,12.749379300493212],[-7.476003385338698,12.747821585352312],[-7.484237022512047,12.746931462414613],[-7.491358006013317,12.748489177555513],[-7.495586089967207,12.750491954165312],[-7.499591643186667,12.753162322978213],[-7.504264788609376,12.755832691791213],[-7.507380218891187,12.756722814728912],[-7.510050587704167,12.757612937666513],[-7.5142786716580465,12.758057999135412],[-7.522067247362567,12.760950898682813],[-7.5278530464573565,12.762508613823712],[-7.530968476739156,12.763398736761312],[-7.536086683630707,12.762063552354812],[-7.539869706115757,12.765624044105513],[-7.544097790069638,12.768071882184012],[-7.552331427242988,12.771854904669112],[-7.555669388259207,12.773857681278812],[-7.562567841026068,12.778753357435912],[-7.565015679104628,12.780533603311312],[-7.593655120995918,12.819788117907212],[-7.604626149830467,12.815915990083212],[-7.613304848472647,12.813468152004713],[-7.621538485645997,12.811242844660512],[-7.629994653553768,12.809240068050812],[-7.634222737507647,12.808349945113113],[-7.642233843946577,12.803009207487213],[-7.648687235244608,12.799448715736512],[-7.651357604057587,12.795443162517113],[-7.654027972870567,12.790102424891112],[-7.655140626542637,12.786319402406113],[-7.659591241230938,12.779420949639212],[-7.663374263715987,12.776082988623012],[-7.668937532076357,12.772967558341213],[-7.674508095298677,12.77079079852731],[-7.678802160000006,12.783623040000013],[-7.682538960000007,12.794789970000013],[-7.686279000000006,12.809678040000012],[-7.688156040000007,12.826425960000012],[-7.688172960000007,12.848756040000012],[-7.690056840000006,12.874807980000012],[-7.695662040000008,12.889697040000012],[-7.712454960000007,12.908312010000012],[-7.727378040000008,12.919482000000013],[-7.744172040000008,12.938096970000013],[-7.748151764270997,12.951745589733612],[-7.752583080000008,12.966942960000013],[-7.741895568960147,12.973342273440313],[-7.733948040000007,12.978100980000013],[-7.717178880000008,12.991120020000013],[-7.692944040000008,12.992970960000012],[-7.676169840000008,13.000408020000012],[-7.666850880000008,13.004126010000013],[-7.6578547787342774,13.005503970665412],[-7.642617120000007,13.007837970000013],[-7.627704840000007,13.011553980000013],[-7.605335160000007,13.013405010000012],[-7.586695080000007,13.018980960000013],[-7.577376120000007,13.022697960000013],[-7.553140920000008,13.024549980000012],[-7.519583160000007,13.024536030000013],[-7.472973960000006,13.024518030000012],[-7.4636611200000065,13.035679020000012],[-7.450614000000008,13.041255960000013],[-7.428245040000008,13.044969000000012],[-7.422656040000008,13.050549000000013],[-7.4142820800000075,13.071015000000012]],[[-7.588886040000007,12.835923030000012],[-7.572115080000007,12.846150990000012],[-7.554413880000008,12.859170030000012],[-7.547892840000007,12.864750030000012],[-7.548831000000008,12.873123990000012],[-7.560019080000007,12.874988970000013],[-7.572129840000008,12.865689990000012],[-7.578650160000007,12.859179030000012],[-7.591694040000006,12.850811010000012],[-7.594482960000007,12.840578010000012],[-7.593548040000008,12.836855970000013],[-7.588886040000007,12.835923030000012]]]}}]}