{"type":"FeatureCollection","features":[{"id":"0","type":"Feature","properties":{"id":"1","commune":"DOUMBA","village":"Fani","point":"S1","etat":"POSITIF"},"geometry":{"type":"Point","coordinates":[-7.544081549847765,13.16679675428724]}},{"id":"1","type":"Feature","properties":{"id":"2","commune":"DOUMBA","village":"Dombana","point":"S1","etat":"POSITIF"},"geometry":{"type":"Point","coordinates":[-7.59152642479299,13.197463477340193]}},{"id":"2","type":"Feature","properties":{"id":"3","commune":"DOUMBA","village":"Doumba","point":"S1","etat":"POSITIF"},"geometry":{"type":"Point","coordinates":[-7.593074120620605,13.11053287226193]}},{"id":"3","type":"Feature","properties":{"id":"4","commune":"KOULA","village":"Dialakorobougou","point":"S1","etat":"POSITIF"},"geometry":{"type":"Point","coordinates":[-7.502503152327297,13.112246192158851]}},{"id":"4","type":"Feature","properties":{"id":"5","commune":"KOULA","village":"Wolokorodj","point":"S1","etat":"POSITIF"},"geometry":{"type":"Point","coordinates":[-7.460497935742025,13.11593989946398]}},{"id":"5","type":"Feature","properties":{"id":"6","commune":"KOULA","village":"Niamakorobougou","point":"S1","etat":"POSITIF"},"geometry":{"type":"Point","coordinates":[-7.480089561872849,13.12909159762389]}},{"id":"6","type":"Feature","properties":{"id":"7","commune":"KOULA","village":"Felou","point":"S1","etat":"POSITIF"},"geometry":{"type":"Point","coordinates":[-7.730342145845984,13.059027065775089]}},{"id":"7","type":"Feature","properties":{"id":"8","commune":"KOULA","village":"Niobougou","point":"S2","etat":"POSITIF"},"geometry":{"type":"Point","coordinates":[-7.685494958079186,13.09256027305648]}},{"id":"8","type":"Feature","properties":{"id":"9","commune":"SIRAKOROLA","village":"Sirakorola","point":"S1","etat":"POSITIF"},"geometry":{"type":"Point","coordinates":[-7.56382330946531,13.291271221731643]}},{"id":"9","type":"Feature","properties":{"id":"10","commune":"SIRAKOROLA","village":"Monzonbala","point":"S1","etat":"POSITIF"},"geometry":{"type":"Point","coordinates":[-7.458285539942,13.296592528851995]}},{"id":"10","type":"Feature","properties":{"id":"11","commune":"SIRAKOROLA","village":"Dlana","point":"S1","etat":"POSITIF"},"geometry":{"type":"Point","coordinates":[-7.42490395440835,13.227525385822496]}},{"id":"11","type":"Feature","properties":{"id":"12","commune":"SIRAKOROLA","village":"Boron cissé","point":"S1","etat":"POSITIF"},"geometry":{"type":"Point","coordinates":[-7.454560165176135,13.220086092135737]}},{"id":"12","type":"Feature","properties":{"id":"13","commune":"SIRAKOROLA","village":"Dontiérebougou","point":"S1","etat":"POSITIF"},"geometry":{"type":"Point","coordinates":[-7.532993868557941,13.230040067774606]}},{"id":"13","type":"Feature","properties":{"id":"14","commune":"SIRAKOROLA","village":"Koroka","point":"S1","etat":"POSITIF"},"geometry":{"type":"Point","coordinates":[-7.681906870852576,13.273531384099277]}},{"id":"14","type":"Feature","properties":{"id":"15","commune":"SIRAKOROLA","village":"Zana","point":"S1","etat":"POSITIF"},"geometry":{"type":"Point","coordinates":[-7.673934379917049,13.356281219722847]}},{"id":"15","type":"Feature","properties":{"id":"16","commune":"MEGUETAN","village":"Gouni","point":"S1","etat":"POSITIF"},"geometry":{"type":"Point","coordinates":[-7.533442720658289,12.870946585493087]}},{"id":"16","type":"Feature","properties":{"id":"17","commune":"MEGUETAN","village":"Fegoun","point":"S1","etat":"POSITIF"},"geometry":{"type":"Point","coordinates":[-7.538612091435962,12.84223682789827]}},{"id":"17","type":"Feature","properties":{"id":"18","commune":"MEGUETAN","village":"Dianguineb","point":"S1","etat":"POSITIF"},"geometry":{"type":"Point","coordinates":[-7.393135301680366,12.980316052892395]}},{"id":"18","type":"Feature","properties":{"id":"19","commune":"MEGUETAN","village":"Siratiguila","point":"S1","etat":"POSITIF"},"geometry":{"type":"Point","coordinates":[-7.513684822887324,12.786717399717642]}},{"id":"19","type":"Feature","properties":{"id":"20","commune":"MEGUETAN","village":"Diladjé","point":"S1","etat":"POSITIF"},"geometry":{"type":"Point","coordinates":[-7.584379218668979,12.969033338728423]}}]}